CCSDS_OMM_VERS = 2.0
CREATION_DATE  = 
ORIGINATOR     = 

OBJECT_NAME    = CZ-2D R/B
OBJECT_ID      = 2005-024B
CENTER_NAME    = EARTH
REF_FRAME      = TEME
TIME_SYSTEM    = UTC
MEAN_ELEMENT_THEORY = SGP/SGP4

EPOCH          = 2025-11-30T14:33:00.590112
MEAN_MOTION    = 15.52315583
ECCENTRICITY   = .0007272
INCLINATION    = 97.3638
RA_OF_ASC_NODE = 341.7443
ARG_OF_PERICENTER = 43.5917
MEAN_ANOMALY   = 316.5909

EPHEMERIS_TYPE = 0
CLASSIFICATION_TYPE = U
NORAD_CAT_ID   = 28738
ELEMENT_SET_NO = 999
REV_AT_EPOCH   = 12437
BSTAR          = .41749E-3
MEAN_MOTION_DOT = .25372E-3
MEAN_MOTION_DDOT = 0

CCSDS_OMM_VERS = 2.0
CREATION_DATE  = 
ORIGINATOR     = 

OBJECT_NAME    = ALOS (DAICHI)
OBJECT_ID      = 2006-002A
CENTER_NAME    = EARTH
REF_FRAME      = TEME
TIME_SYSTEM    = UTC
MEAN_ELEMENT_THEORY = SGP/SGP4

EPOCH          = 2025-11-30T20:19:59.973888
MEAN_MOTION    = 14.69427073
ECCENTRICITY   = .0000726
INCLINATION    = 98.1074
RA_OF_ASC_NODE = 286.4200
ARG_OF_PERICENTER = 96.2978
MEAN_ANOMALY   = 263.8310

EPHEMERIS_TYPE = 0
CLASSIFICATION_TYPE = U
NORAD_CAT_ID   = 28931
ELEMENT_SET_NO = 999
REV_AT_EPOCH   = 5896
BSTAR          = .28256E-3
MEAN_MOTION_DOT = .1623E-4
MEAN_MOTION_DDOT = 0

CCSDS_OMM_VERS = 2.0
CREATION_DATE  = 
ORIGINATOR     = 

OBJECT_NAME    = H-2A R/B
OBJECT_ID      = 2006-002B
CENTER_NAME    = EARTH
REF_FRAME      = TEME
TIME_SYSTEM    = UTC
MEAN_ELEMENT_THEORY = SGP/SGP4

EPOCH          = 2025-11-30T15:03:37.232064
MEAN_MOTION    = 15.14184549
ECCENTRICITY   = .0054446
INCLINATION    = 98.2305
RA_OF_ASC_NODE = 108.3905
ARG_OF_PERICENTER = 217.4980
MEAN_ANOMALY   = 142.2447

EPHEMERIS_TYPE = 0
CLASSIFICATION_TYPE = U
NORAD_CAT_ID   = 28932
ELEMENT_SET_NO = 999
REV_AT_EPOCH   = 7943
BSTAR          = .59491E-3
MEAN_MOTION_DOT = .11192E-3
MEAN_MOTION_DDOT = 0

CCSDS_OMM_VERS = 2.0
CREATION_DATE  = 
ORIGINATOR     = 

OBJECT_NAME    = RESURS-DK 1
OBJECT_ID      = 2006-021A
CENTER_NAME    = EARTH
REF_FRAME      = TEME
TIME_SYSTEM    = UTC
MEAN_ELEMENT_THEORY = SGP/SGP4

EPOCH          = 2025-11-30T18:58:41.583648
MEAN_MOTION    = 15.12049956
ECCENTRICITY   = .000778
INCLINATION    = 69.9321
RA_OF_ASC_NODE = 132.7138
ARG_OF_PERICENTER = 267.2577
MEAN_ANOMALY   = 92.7698

EPHEMERIS_TYPE = 0
CLASSIFICATION_TYPE = U
NORAD_CAT_ID   = 29228
ELEMENT_SET_NO = 999
REV_AT_EPOCH   = 7257
BSTAR          = .19886E-3
MEAN_MOTION_DOT = .3322E-4
MEAN_MOTION_DDOT = 0

CCSDS_OMM_VERS = 2.0
CREATION_DATE  = 
ORIGINATOR     = 

OBJECT_NAME    = CZ-4B R/B
OBJECT_ID      = 2006-046C
CENTER_NAME    = EARTH
REF_FRAME      = TEME
TIME_SYSTEM    = UTC
MEAN_ELEMENT_THEORY = SGP/SGP4

EPOCH          = 2025-11-30T14:56:14.179776
MEAN_MOTION    = 15.15679313
ECCENTRICITY   = .0032643
INCLINATION    = 97.5758
RA_OF_ASC_NODE = 14.7941
ARG_OF_PERICENTER = 249.8355
MEAN_ANOMALY   = 109.9364

EPHEMERIS_TYPE = 0
CLASSIFICATION_TYPE = U
NORAD_CAT_ID   = 29507
ELEMENT_SET_NO = 999
REV_AT_EPOCH   = 4503
BSTAR          = .2668E-3
MEAN_MOTION_DOT = .5076E-4
MEAN_MOTION_DDOT = 0

CCSDS_OMM_VERS = 2.0
CREATION_DATE  = 
ORIGINATOR     = 

OBJECT_NAME    = CZ-2C R/B
OBJECT_ID      = 2007-010B
CENTER_NAME    = EARTH
REF_FRAME      = TEME
TIME_SYSTEM    = UTC
MEAN_ELEMENT_THEORY = SGP/SGP4

EPOCH          = 2025-11-30T17:48:05.383008
MEAN_MOTION    = 14.20201515
ECCENTRICITY   = .0058349
INCLINATION    = 98.3970
RA_OF_ASC_NODE = 87.9966
ARG_OF_PERICENTER = 221.0868
MEAN_ANOMALY   = 138.5908

EPHEMERIS_TYPE = 0
CLASSIFICATION_TYPE = U
NORAD_CAT_ID   = 31114
ELEMENT_SET_NO = 999
REV_AT_EPOCH   = 96567
BSTAR          = .92785E-4
MEAN_MOTION_DOT = .16E-5
MEAN_MOTION_DDOT = 0

CCSDS_OMM_VERS = 2.0
CREATION_DATE  = 
ORIGINATOR     = 

OBJECT_NAME    = COSMO-SKYMED 1
OBJECT_ID      = 2007-023A
CENTER_NAME    = EARTH
REF_FRAME      = TEME
TIME_SYSTEM    = UTC
MEAN_ELEMENT_THEORY = SGP/SGP4

EPOCH          = 2025-11-30T19:30:53.185248
MEAN_MOTION    = 14.95627947
ECCENTRICITY   = .0001569
INCLINATION    = 97.8849
RA_OF_ASC_NODE = 160.1349
ARG_OF_PERICENTER = 85.5535
MEAN_ANOMALY   = 274.5865

EPHEMERIS_TYPE = 0
CLASSIFICATION_TYPE = U
NORAD_CAT_ID   = 31598
ELEMENT_SET_NO = 999
REV_AT_EPOCH   = 12
BSTAR          = .39567E-3
MEAN_MOTION_DOT = .4338E-4
MEAN_MOTION_DDOT = 0

CCSDS_OMM_VERS = 2.0
CREATION_DATE  = 
ORIGINATOR     = 

OBJECT_NAME    = COSMOS 2428
OBJECT_ID      = 2007-029A
CENTER_NAME    = EARTH
REF_FRAME      = TEME
TIME_SYSTEM    = UTC
MEAN_ELEMENT_THEORY = SGP/SGP4

EPOCH          = 2025-11-30T15:09:57.933792
MEAN_MOTION    = 14.12886493
ECCENTRICITY   = .0003003
INCLINATION    = 70.9374
RA_OF_ASC_NODE = 51.3006
ARG_OF_PERICENTER = 42.7382
MEAN_ANOMALY   = 317.3972

EPHEMERIS_TYPE = 0
CLASSIFICATION_TYPE = U
NORAD_CAT_ID   = 31792
ELEMENT_SET_NO = 999
REV_AT_EPOCH   = 95010
BSTAR          = -.89919E-5
MEAN_MOTION_DOT = -.65E-6
MEAN_MOTION_DDOT = 0

CCSDS_OMM_VERS = 2.0
CREATION_DATE  = 
ORIGINATOR     = 

OBJECT_NAME    = SL-16 R/B
OBJECT_ID      = 2007-029B
CENTER_NAME    = EARTH
REF_FRAME      = TEME
TIME_SYSTEM    = UTC
MEAN_ELEMENT_THEORY = SGP/SGP4

EPOCH          = 2025-11-30T12:27:30.619296
MEAN_MOTION    = 14.14816720
ECCENTRICITY   = .00024514
INCLINATION    = 70.9773
RA_OF_ASC_NODE = 20.8469
ARG_OF_PERICENTER = 266.1146
MEAN_ANOMALY   = 194.3041

EPHEMERIS_TYPE = 0
CLASSIFICATION_TYPE = U
NORAD_CAT_ID   = 31793
ELEMENT_SET_NO = 999
REV_AT_EPOCH   = 95134
BSTAR          = -.54157749E-4
MEAN_MOTION_DOT = -.152E-5
MEAN_MOTION_DDOT = 0

CCSDS_OMM_VERS = 2.0
CREATION_DATE  = 
ORIGINATOR     = 

OBJECT_NAME    = KORONAS-FOTON
OBJECT_ID      = 2009-003A
CENTER_NAME    = EARTH
REF_FRAME      = TEME
TIME_SYSTEM    = UTC
MEAN_ELEMENT_THEORY = SGP/SGP4

EPOCH          = 2025-11-30T14:40:28.106688
MEAN_MOTION    = 15.40787287
ECCENTRICITY   = .0012455
INCLINATION    = 82.4327
RA_OF_ASC_NODE = 18.6689
ARG_OF_PERICENTER = 147.7285
MEAN_ANOMALY   = 212.4726

EPHEMERIS_TYPE = 0
CLASSIFICATION_TYPE = U
NORAD_CAT_ID   = 33504
ELEMENT_SET_NO = 999
REV_AT_EPOCH   = 93047
BSTAR          = .32076E-3
MEAN_MOTION_DOT = .13207E-3
MEAN_MOTION_DDOT = 0

CCSDS_OMM_VERS = 2.0
CREATION_DATE  = 
ORIGINATOR     = 

OBJECT_NAME    = CZ-2C R/B
OBJECT_ID      = 2011-030B
CENTER_NAME    = EARTH
REF_FRAME      = TEME
TIME_SYSTEM    = UTC
MEAN_ELEMENT_THEORY = SGP/SGP4

EPOCH          = 2025-11-30T19:56:21.781824
MEAN_MOTION    = 14.80834446
ECCENTRICITY   = .005191
INCLINATION    = 97.8391
RA_OF_ASC_NODE = 289.2030
ARG_OF_PERICENTER = 313.4089
MEAN_ANOMALY   = 76.3144

EPHEMERIS_TYPE = 0
CLASSIFICATION_TYPE = U
NORAD_CAT_ID   = 37731
ELEMENT_SET_NO = 999
REV_AT_EPOCH   = 77546
BSTAR          = .25145E-3
MEAN_MOTION_DOT = .193E-4
MEAN_MOTION_DDOT = 0

CCSDS_OMM_VERS = 2.0
CREATION_DATE  = 
ORIGINATOR     = 

OBJECT_NAME    = H-2A R/B
OBJECT_ID      = 2012-025E
CENTER_NAME    = EARTH
REF_FRAME      = TEME
TIME_SYSTEM    = UTC
MEAN_ELEMENT_THEORY = SGP/SGP4

EPOCH          = 2025-11-30T20:31:22.797408
MEAN_MOTION    = 14.94320781
ECCENTRICITY   = .0043856
INCLINATION    = 98.4575
RA_OF_ASC_NODE = 289.1714
ARG_OF_PERICENTER = 276.6061
MEAN_ANOMALY   = 83.0166

EPHEMERIS_TYPE = 0
CLASSIFICATION_TYPE = U
NORAD_CAT_ID   = 38341
ELEMENT_SET_NO = 999
REV_AT_EPOCH   = 73345
BSTAR          = .29081E-3
MEAN_MOTION_DOT = .3115E-4
MEAN_MOTION_DDOT = 0

