CZ-2D R/B               
1 28738U 05024B   25334.60625683  .00025372  00000+0  41749-3 0  9998
2 28738  97.3638 341.7443 0007272  43.5917 316.5909 15.52315583124377
ALOS (DAICHI)           
1 28931U 06002A   25334.84722192  .00001623  00000+0  28256-3 0  9990
2 28931  98.1074 286.4200 0000726  96.2978 263.8310 14.69427073 58966
H-2A R/B                
1 28932U 06002B   25334.62751426  .00011192  00000+0  59491-3 0  9996
2 28932  98.2305 108.3905 0054446 217.4980 142.2447 15.14184549 79432
RESURS-DK 1             
1 29228U 06021A   25334.79075907  .00003322  00000+0  19886-3 0  9997
2 29228  69.9321 132.7138 0007780 267.2577  92.7698 15.12049956 72572
CZ-4B R/B               
1 29507U 06046C   25334.62238634  .00005076  00000+0  26680-3 0  9992
2 29507  97.5758  14.7941 0032643 249.8355 109.9364 15.15679313 45031
CZ-2C R/B               
1 31114U 07010B   25334.74172897  .00000160  00000+0  92785-4 0  9991
2 31114  98.3970  87.9966 0058349 221.0868 138.5908 14.20201515965677
COSMO-SKYMED 1          
1 31598U 07023A   25334.81311557  .00004338  00000+0  39567-3 0  9996
2 31598  97.8849 160.1349 0001569  85.5535 274.5865 14.95627947   123
COSMOS 2428             
1 31792U 07029A   25334.63192053 -.00000065  00000+0 -89919-5 0  9999
2 31792  70.9374  51.3006 0003003  42.7382 317.3972 14.12886493950104
SL-16 R/B               
1 31793U 07029B   25334.51910439 -.00000152  00000+0 -54158-4 0  9996
2 31793  70.9773  20.8469 0002451 266.1146 194.3041 14.14816720951343
KORONAS-FOTON           
1 33504U 09003A   25334.61143642  .00013207  00000+0  32076-3 0  9994
2 33504  82.4327  18.6689 0012455 147.7285 212.4726 15.40787287930478
CZ-2C R/B               
1 37731U 11030B   25334.83080766  .00001930  00000+0  25145-3 0  9993
2 37731  97.8391 289.2030 0051910 313.4089  76.3144 14.80834446775464
H-2A R/B                
1 38341U 12025E   25334.85512497  .00003115  00000+0  29081-3 0  9999
2 38341  98.4575 289.1714 0043856 276.6061  83.0166 14.94320781733450
